start=new Date('2022-07-20T00:00:00.000Z').valueOf();
sats=[{"CENTER_NAME":"EARTH","MEAN_ANOMALY":"57.5290","CLASSIFICATION_TYPE":"U","TLE_LINE2":"2 53035  53.2172 318.3181 0001441  45.6250  57.5290 15.73205656  1307","OBJECT_NAME":"STARLINK-4157","GP_ID":"208474221","ELEMENT_SET_NO":"999","MEAN_MOTION":"15.73205656","INCLINATION":"53.2172","APOAPSIS":"350.714","REV_AT_EPOCH":"130","ARG_OF_PERICENTER":"45.6250","TLE_LINE1":"1 53035U 22076BB  22200.91667824 -.00002852  00000-0 -15907-4 0  9997","OBJECT_ID":"2022-076BB","SITE":"AFETR","ECCENTRICITY":"0.00014410","MEAN_MOTION_DDOT":"0.0000000000000","LAUNCH_DATE":"2022-07-07","FILE":"3517796","DECAY_DATE":null,"REF_FRAME":"TEME","OBJECT_TYPE":"PAYLOAD","TIME_SYSTEM":"UTC","EPHEMERIS_TYPE":"0","NORAD_CAT_ID":"53035","COUNTRY_CODE":"US","PERIOD":"91.533","SEMIMAJOR_AXIS":"6727.879","EPOCH":"2022-07-19T22:00:00.999936","MEAN_ELEMENT_THEORY":"SGP4","RA_OF_ASC_NODE":"318.3181","BSTAR":"-0.00001590700000","PERIAPSIS":"348.775","MEAN_MOTION_DOT":"-0.00002852","RCS_SIZE":"MEDIUM"},{"REV_AT_EPOCH":"130","INCLINATION":"53.2172","APOAPSIS":"350.588","TLE_LINE1":"1 53036U 22076BC  22200.91667824 -.00002971  00000-0 -16752-4 0  9999","SITE":"AFETR","OBJECT_ID":"2022-076BC","ARG_OF_PERICENTER":"57.7402","TLE_LINE2":"2 53036  53.2172 318.3161 0001254  57.7402  46.0099 15.73205711  1303","MEAN_ANOMALY":"46.0099","CENTER_NAME":"EARTH","CLASSIFICATION_TYPE":"U","OBJECT_NAME":"STARLINK-4155","ELEMENT_SET_NO":"999","GP_ID":"208474631","MEAN_MOTION":"15.73205711","MEAN_MOTION_DDOT":"0.0000000000000","LAUNCH_DATE":"2022-07-07","FILE":"3517796","ECCENTRICITY":"0.00012540","COUNTRY_CODE":"US","NORAD_CAT_ID":"53036","SEMIMAJOR_AXIS":"6727.879","PERIOD":"91.533","REF_FRAME":"TEME","DECAY_DATE":null,"OBJECT_TYPE":"PAYLOAD","EPHEMERIS_TYPE":"0","TIME_SYSTEM":"UTC","MEAN_MOTION_DOT":"-0.00002971","RCS_SIZE":"MEDIUM","MEAN_ELEMENT_THEORY":"SGP4","EPOCH":"2022-07-19T22:00:00.999936","BSTAR":"-0.00001675200000","RA_OF_ASC_NODE":"318.3161","PERIAPSIS":"348.900"},{"LAUNCH_DATE":"2022-07-07","FILE":"3517796","MEAN_MOTION_DDOT":"0.0000000000000","ECCENTRICITY":"0.00012010","REV_AT_EPOCH":"130","INCLINATION":"53.2172","APOAPSIS":"350.552","TLE_LINE1":"1 53037U 22076BD  22200.91667824 -.00003047  00000-0 -17299-4 0  9992","OBJECT_ID":"2022-076BD","SITE":"AFETR","ARG_OF_PERICENTER":"63.0876","OBJECT_NAME":"STARLINK-4153","MEAN_MOTION":"15.73205743","GP_ID":"208473966","ELEMENT_SET_NO":"999","TLE_LINE2":"2 53037  53.2172 318.3156 0001201  63.0876  41.2586 15.73205743  1308","CENTER_NAME":"EARTH","MEAN_ANOMALY":"41.2586","CLASSIFICATION_TYPE":"U","RCS_SIZE":"MEDIUM","MEAN_MOTION_DOT":"-0.00003047","PERIAPSIS":"348.936","MEAN_ELEMENT_THEORY":"SGP4","EPOCH":"2022-07-19T22:00:00.999936","BSTAR":"-0.00001729900000","RA_OF_ASC_NODE":"318.3156","COUNTRY_CODE":"US","NORAD_CAT_ID":"53037","SEMIMAJOR_AXIS":"6727.879","PERIOD":"91.533","EPHEMERIS_TYPE":"0","TIME_SYSTEM":"UTC","REF_FRAME":"TEME","DECAY_DATE":null,"OBJECT_TYPE":"PAYLOAD"},{"MEAN_MOTION_DOT":"-0.00003004","RCS_SIZE":"MEDIUM","EPOCH":"2022-07-19T22:00:00.999936","MEAN_ELEMENT_THEORY":"SGP4","BSTAR":"-0.00001699300000","RA_OF_ASC_NODE":"318.3138","PERIAPSIS":"348.880","NORAD_CAT_ID":"53038","COUNTRY_CODE":"US","PERIOD":"91.533","SEMIMAJOR_AXIS":"6727.879","DECAY_DATE":null,"REF_FRAME":"TEME","OBJECT_TYPE":"PAYLOAD","TIME_SYSTEM":"UTC","EPHEMERIS_TYPE":"0","MEAN_MOTION_DDOT":"0.0000000000000","LAUNCH_DATE":"2022-07-07","FILE":"3517796","ECCENTRICITY":"0.00012840","INCLINATION":"53.2172","APOAPSIS":"350.608","REV_AT_EPOCH":"130","ARG_OF_PERICENTER":"55.1852","SITE":"AFETR","TLE_LINE1":"1 53038U 22076BE  22200.91667824 -.00003004  00000-0 -16993-4 0  9996","OBJECT_ID":"2022-076BE","CENTER_NAME":"EARTH","MEAN_ANOMALY":"49.7571","CLASSIFICATION_TYPE":"U","TLE_LINE2":"2 53038  53.2172 318.3138 0001284  55.1852  49.7571 15.73205718  1305","OBJECT_NAME":"STARLINK-4156","GP_ID":"208474077","MEAN_MOTION":"15.73205718","ELEMENT_SET_NO":"999"},{"ECCENTRICITY":"0.00014070","LAUNCH_DATE":"2022-07-11","FILE":"3517796","MEAN_MOTION_DDOT":"0.0000000000000","OBJECT_NAME":"STARLINK-4362","GP_ID":"208474222","ELEMENT_SET_NO":"999","MEAN_MOTION":"15.70178499","TLE_LINE2":"2 53043  97.6574  19.2848 0001407  94.4137 199.1173 15.70178499  1303","MEAN_ANOMALY":"199.1173","CLASSIFICATION_TYPE":"U","CENTER_NAME":"EARTH","REV_AT_EPOCH":"130","INCLINATION":"97.6574","APOAPSIS":"359.336","TLE_LINE1":"1 53043U 22077A   22200.91667824  .00094759  00000-0  77745-3 0  9999","OBJECT_ID":"2022-077A","SITE":"AFWTR","ARG_OF_PERICENTER":"94.4137","PERIAPSIS":"357.441","MEAN_ELEMENT_THEORY":"SGP4","EPOCH":"2022-07-19T22:00:00.999936","RA_OF_ASC_NODE":"19.2848","BSTAR":"0.00077745000000","MEAN_MOTION_DOT":"0.00094759","RCS_SIZE":null,"EPHEMERIS_TYPE":"0","TIME_SYSTEM":"UTC","REF_FRAME":"TEME","DECAY_DATE":null,"OBJECT_TYPE":"PAYLOAD","COUNTRY_CODE":"US","NORAD_CAT_ID":"53043","SEMIMAJOR_AXIS":"6736.523","PERIOD":"91.709"},{"TLE_LINE1":"1 53044U 22077B   22200.91667824  .00071381  00000-0  58687-3 0  9990","SITE":"AFWTR","OBJECT_ID":"2022-077B","ARG_OF_PERICENTER":"80.2752","REV_AT_EPOCH":"130","APOAPSIS":"359.054","INCLINATION":"97.6572","TLE_LINE2":"2 53044  97.6572  19.2842 0001109  80.2752 213.8002 15.70206978  1300","CLASSIFICATION_TYPE":"U","MEAN_ANOMALY":"213.8002","CENTER_NAME":"EARTH","ELEMENT_SET_NO":"999","GP_ID":"208474632","MEAN_MOTION":"15.70206978","OBJECT_NAME":"STARLINK-4349","MEAN_MOTION_DDOT":"0.0000000000000","FILE":"3517796","LAUNCH_DATE":"2022-07-11","ECCENTRICITY":"0.00011090","SEMIMAJOR_AXIS":"6736.442","PERIOD":"91.708","COUNTRY_CODE":"US","NORAD_CAT_ID":"53044","OBJECT_TYPE":"PAYLOAD","REF_FRAME":"TEME","DECAY_DATE":null,"EPHEMERIS_TYPE":"0","TIME_SYSTEM":"UTC","RCS_SIZE":null,"MEAN_MOTION_DOT":"0.00071381","RA_OF_ASC_NODE":"19.2842","BSTAR":"0.00058687000000","MEAN_ELEMENT_THEORY":"SGP4","EPOCH":"2022-07-19T22:00:00.999936","PERIAPSIS":"357.560"},{"PERIAPSIS":"357.101","EPOCH":"2022-07-19T22:00:00.999936","MEAN_ELEMENT_THEORY":"SGP4","BSTAR":"-0.00130330000000","RA_OF_ASC_NODE":"19.2853","MEAN_MOTION_DOT":"-0.00155474","RCS_SIZE":null,"TIME_SYSTEM":"UTC","EPHEMERIS_TYPE":"0","DECAY_DATE":null,"REF_FRAME":"TEME","OBJECT_TYPE":"PAYLOAD","NORAD_CAT_ID":"53045","COUNTRY_CODE":"US","PERIOD":"91.701","SEMIMAJOR_AXIS":"6736.107","ECCENTRICITY":"0.00012940","LAUNCH_DATE":"2022-07-11","FILE":"3517796","MEAN_MOTION_DDOT":"0.0000000000000","OBJECT_NAME":"STARLINK-4350","MEAN_MOTION":"15.70323945","GP_ID":"208473967","ELEMENT_SET_NO":"999","CENTER_NAME":"EARTH","MEAN_ANOMALY":"200.4567","CLASSIFICATION_TYPE":"U","TLE_LINE2":"2 53045  97.6571  19.2853 0001294  94.2887 200.4567 15.70323945  1303","INCLINATION":"97.6571","APOAPSIS":"358.844","REV_AT_EPOCH":"130","ARG_OF_PERICENTER":"94.2887","TLE_LINE1":"1 53045U 22077C   22200.91667824 -.00155474  00000-0 -13033-2 0  9994","SITE":"AFWTR","OBJECT_ID":"2022-077C"},{"COUNTRY_CODE":"US","NORAD_CAT_ID":"53046","SEMIMAJOR_AXIS":"6736.013","PERIOD":"91.699","EPHEMERIS_TYPE":"0","TIME_SYSTEM":"UTC","REF_FRAME":"TEME","DECAY_DATE":null,"OBJECT_TYPE":"PAYLOAD","RCS_SIZE":null,"MEAN_MOTION_DOT":"-0.00103058","PERIAPSIS":"357.281","MEAN_ELEMENT_THEORY":"SGP4","EPOCH":"2022-07-19T22:00:00.999936","BSTAR":"-0.00085705000000","RA_OF_ASC_NODE":"19.2846","REV_AT_EPOCH":"130","INCLINATION":"97.6565","APOAPSIS":"358.474","TLE_LINE1":"1 53046U 22077D   22200.91667824 -.00103058  00000-0 -85705-3 0  9992","OBJECT_ID":"2022-077D","SITE":"AFWTR","ARG_OF_PERICENTER":"98.6446","OBJECT_NAME":"STARLINK-4331","GP_ID":"208474078","ELEMENT_SET_NO":"999","MEAN_MOTION":"15.70357098","TLE_LINE2":"2 53046  97.6565  19.2846 0000886  98.6446 196.5625 15.70357098  1300","MEAN_ANOMALY":"196.5625","CENTER_NAME":"EARTH","CLASSIFICATION_TYPE":"U","LAUNCH_DATE":"2022-07-11","FILE":"3517796","MEAN_MOTION_DDOT":"0.0000000000000","ECCENTRICITY":"0.00008860"},{"COUNTRY_CODE":"US","NORAD_CAT_ID":"53047","SEMIMAJOR_AXIS":"6736.621","PERIOD":"91.711","EPHEMERIS_TYPE":"0","TIME_SYSTEM":"UTC","REF_FRAME":"TEME","DECAY_DATE":null,"OBJECT_TYPE":"PAYLOAD","MEAN_MOTION_DOT":"0.00177698","RCS_SIZE":null,"PERIAPSIS":"357.526","MEAN_ELEMENT_THEORY":"SGP4","EPOCH":"2022-07-19T22:00:00.999936","BSTAR":"0.00144460000000","RA_OF_ASC_NODE":"19.2865","REV_AT_EPOCH":"130","APOAPSIS":"359.446","INCLINATION":"97.6576","TLE_LINE1":"1 53047U 22077E   22200.91667824  .00177698  00000-0  14446-2 0  9995","OBJECT_ID":"2022-077E","SITE":"AFWTR","ARG_OF_PERICENTER":"95.1269","OBJECT_NAME":"STARLINK-4352","GP_ID":"208473856","ELEMENT_SET_NO":"999","MEAN_MOTION":"15.70144467","TLE_LINE2":"2 53047  97.6576  19.2865 0001425  95.1269 201.3405 15.70144467  1304","CLASSIFICATION_TYPE":"U","CENTER_NAME":"EARTH","MEAN_ANOMALY":"201.3405","LAUNCH_DATE":"2022-07-11","FILE":"3517796","MEAN_MOTION_DDOT":"0.0000000000000","ECCENTRICITY":"0.00014250"},{"PERIAPSIS":"357.216","MEAN_ELEMENT_THEORY":"SGP4","EPOCH":"2022-07-19T22:00:00.999936","BSTAR":"-0.00057726000000","RA_OF_ASC_NODE":"19.2850","RCS_SIZE":null,"MEAN_MOTION_DOT":"-0.00069614","EPHEMERIS_TYPE":"0","TIME_SYSTEM":"UTC","REF_FRAME":"TEME","DECAY_DATE":null,"OBJECT_TYPE":"PAYLOAD","COUNTRY_CODE":"US","NORAD_CAT_ID":"53048","SEMIMAJOR_AXIS":"6736.132","PERIOD":"91.701","ECCENTRICITY":"0.00011600","LAUNCH_DATE":"2022-07-11","FILE":"3517796","MEAN_MOTION_DDOT":"0.0000000000000","OBJECT_NAME":"STARLINK-4355","MEAN_MOTION":"15.70315395","GP_ID":"208474555","ELEMENT_SET_NO":"999","TLE_LINE2":"2 53048  97.6563  19.2850 0001160  92.6751 203.2001 15.70315395  1302","CENTER_NAME":"EARTH","CLASSIFICATION_TYPE":"U","MEAN_ANOMALY":"203.2001","REV_AT_EPOCH":"130","INCLINATION":"97.6563","APOAPSIS":"358.778","OBJECT_ID":"2022-077F","TLE_LINE1":"1 53048U 22077F   22200.91667824 -.00069614  00000-0 -57726-3 0  9995","SITE":"AFWTR","ARG_OF_PERICENTER":"92.6751"}];
